{
  "type": "FeatureCollection",
  "features": [
    {
      "type": "Feature",
      "properties": {
        "norad_id": 31841,
        "name": "FENGYUN 1C DEB",
        "group": "fengyun-1c-debris",
        "lat": 75.09350387585063,
        "lon": 113.86038692610155,
        "alt_km": 938.6472225231564,
        "timestamp": "2025-12-04T07:39:36.418912+00:00",
        "meta_object_name": "FENGYUN 1C DEB",
        "meta_object_id": "1999-025CJF",
        "meta_epoch": "2025-11-17T05:28:34.898880",
        "meta_mean_motion": 14.03357121,
        "meta_eccentricity": 0.0309007,
        "meta_inclination": 98.418,
        "meta_ra_of_asc_node": 131.8088,
        "meta_arg_of_pericenter": 17.7285,
        "meta_mean_anomaly": 155.1599,
        "meta_ephemeris_type": 0,
        "meta_classification_type": "U",
        "meta_norad_cat_id": 31841,
        "meta_element_set_no": 999,
        "meta_rev_at_epoch": 58981,
        "meta_bstar": 0.0018537015,
        "meta_mean_motion_dot": 4.385e-05,
        "meta_mean_motion_ddot": 0,
        "tle_line1": "1 31841U 99025CJF 25321.22818170  .00004385  00000+0  18537-2 0  9999",
        "tle_line2": "2 31841  98.4180 131.8088 0309007  17.7285 155.1599 14.03357121589810"
      },
      "geometry": {
        "type": "Point",
        "coordinates": [
          113.86038692610155,
          75.09350387585063
        ]
      }
    },
    {
      "type": "Feature",
      "properties": {
        "norad_id": 31843,
        "name": "FENGYUN 1C DEB",
        "group": "fengyun-1c-debris",
        "lat": -25.761708472672645,
        "lon": 95.21880235287254,
        "alt_km": 1610.693692146001,
        "timestamp": "2025-12-04T07:39:36.418921+00:00",
        "meta_object_name": "FENGYUN 1C DEB",
        "meta_object_id": "1999-025CJH",
        "meta_epoch": "2025-12-02T15:01:05.389248",
        "meta_mean_motion": 13.33462656,
        "meta_eccentricity": 0.06419114,
        "meta_inclination": 99.2813,
        "meta_ra_of_asc_node": 278.1993,
        "meta_arg_of_pericenter": 18.9524,
        "meta_mean_anomaly": 343.4355,
        "meta_ephemeris_type": 0,
        "meta_classification_type": "U",
        "meta_norad_cat_id": 31843,
        "meta_element_set_no": 999,
        "meta_rev_at_epoch": 64561,
        "meta_bstar": 0.0084044243,
        "meta_mean_motion_dot": 0.00013435,
        "meta_mean_motion_ddot": 0,
        "tle_line1": "1 31843U 99025CJH 25336.62575682  .00013435  00000+0  84044-2 0  9991",
        "tle_line2": "2 31843  99.2813 278.1993 0641911  18.9524 343.4355 13.33462656645611"
      },
      "geometry": {
        "type": "Point",
        "coordinates": [
          95.21880235287254,
          -25.761708472672645
        ]
      }
    },
    {
      "type": "Feature",
      "properties": {
        "norad_id": 31844,
        "name": "FENGYUN 1C DEB",
        "group": "fengyun-1c-debris",
        "lat": -42.41769238007875,
        "lon": 136.05406114231258,
        "alt_km": 897.9012370039718,
        "timestamp": "2025-12-04T07:39:36.418930+00:00",
        "meta_object_name": "FENGYUN 1C DEB",
        "meta_object_id": "1999-025CJJ",
        "meta_epoch": "2025-12-03T05:14:22.488576",
        "meta_mean_motion": 14.19683273,
        "meta_eccentricity": 0.0103744,
        "meta_inclination": 100.3014,
        "meta_ra_of_asc_node": 324.3406,
        "meta_arg_of_pericenter": 16.8564,
        "meta_mean_anomaly": 343.6013,
        "meta_ephemeris_type": 0,
        "meta_classification_type": "U",
        "meta_norad_cat_id": 31844,
        "meta_element_set_no": 999,
        "meta_rev_at_epoch": 95197,
        "meta_bstar": 0.0010371,
        "meta_mean_motion_dot": 2.257e-05,
        "meta_mean_motion_ddot": 0,
        "tle_line1": "1 31844U 99025CJJ 25337.21831584  .00002257  00000+0  10371-2 0  9996",
        "tle_line2": "2 31844 100.3014 324.3406 0103744  16.8564 343.6013 14.19683273951977"
      },
      "geometry": {
        "type": "Point",
        "coordinates": [
          136.05406114231258,
          -42.41769238007875
        ]
      }
    },
    {
      "type": "Feature",
      "properties": {
        "norad_id": 31850,
        "name": "FENGYUN 1C DEB",
        "group": "fengyun-1c-debris",
        "lat": -74.21407791609066,
        "lon": 53.83488283908701,
        "alt_km": 534.7569283607636,
        "timestamp": "2025-12-04T07:39:36.418939+00:00",
        "meta_object_name": "FENGYUN 1C DEB",
        "meta_object_id": "1999-025CJQ",
        "meta_epoch": "2025-12-01T20:22:02.943552",
        "meta_mean_motion": 15.30101439,
        "meta_eccentricity": 0.00812319,
        "meta_inclination": 98.576,
        "meta_ra_of_asc_node": 18.7204,
        "meta_arg_of_pericenter": 126.804,
        "meta_mean_anomaly": 234.0686,
        "meta_ephemeris_type": 0,
        "meta_classification_type": "U",
        "meta_norad_cat_id": 31850,
        "meta_element_set_no": 999,
        "meta_rev_at_epoch": 65662,
        "meta_bstar": 0.0030371195,
        "meta_mean_motion_dot": 0.00098889,
        "meta_mean_motion_ddot": 0,
        "tle_line1": "1 31850U 99025CJQ 25335.84864518  .00098889  00000+0  30371-2 0  9991",
        "tle_line2": "2 31850  98.5760  18.7204 0081231 126.8040 234.0686 15.30101439656623"
      },
      "geometry": {
        "type": "Point",
        "coordinates": [
          53.83488283908701,
          -74.21407791609066
        ]
      }
    },
    {
      "type": "Feature",
      "properties": {
        "norad_id": 31854,
        "name": "FENGYUN 1C DEB",
        "group": "fengyun-1c-debris",
        "lat": -40.487381283381744,
        "lon": -10.60295701339433,
        "alt_km": 936.9214973177404,
        "timestamp": "2025-12-04T07:39:36.418948+00:00",
        "meta_object_name": "FENGYUN 1C DEB",
        "meta_object_id": "1999-025CJU",
        "meta_epoch": "2025-12-03T06:11:08.380032",
        "meta_mean_motion": 14.03057185,
        "meta_eccentricity": 0.0072008,
        "meta_inclination": 98.8476,
        "meta_ra_of_asc_node": 340.7241,
        "meta_arg_of_pericenter": 167.2323,
        "meta_mean_anomaly": 193.0688,
        "meta_ephemeris_type": 0,
        "meta_classification_type": "U",
        "meta_norad_cat_id": 31854,
        "meta_element_set_no": 999,
        "meta_rev_at_epoch": 69139,
        "meta_bstar": 0.00034596,
        "meta_mean_motion_dot": 5.08e-06,
        "meta_mean_motion_ddot": 0,
        "tle_line1": "1 31854U 99025CJU 25337.25773588  .00000508  00000+0  34596-3 0  9993",
        "tle_line2": "2 31854  98.8476 340.7241 0072008 167.2323 193.0688 14.03057185691394"
      },
      "geometry": {
        "type": "Point",
        "coordinates": [
          -10.60295701339433,
          -40.487381283381744
        ]
      }
    },
    {
      "type": "Feature",
      "properties": {
        "norad_id": 31857,
        "name": "FENGYUN 1C DEB",
        "group": "fengyun-1c-debris",
        "lat": -66.79665254217356,
        "lon": 176.28528348666836,
        "alt_km": 910.5304618548926,
        "timestamp": "2025-12-04T07:39:36.418957+00:00",
        "meta_object_name": "FENGYUN 1C DEB",
        "meta_object_id": "1999-025CJX",
        "meta_epoch": "2025-12-01T20:13:56.835552",
        "meta_mean_motion": 13.61858254,
        "meta_eccentricity": 0.03084927,
        "meta_inclination": 96.1896,
        "meta_ra_of_asc_node": 9.3724,
        "meta_arg_of_pericenter": 312.5702,
        "meta_mean_anomaly": 44.9786,
        "meta_ephemeris_type": 0,
        "meta_classification_type": "U",
        "meta_norad_cat_id": 31857,
        "meta_element_set_no": 999,
        "meta_rev_at_epoch": 61481,
        "meta_bstar": 0.0021184073,
        "meta_mean_motion_dot": 2.215e-05,
        "meta_mean_motion_ddot": 0,
        "tle_line1": "1 31857U 99025CJX 25335.84301893  .00002215  00000+0  21184-2 0  9990",
        "tle_line2": "2 31857  96.1896   9.3724 0308492 312.5702  44.9786 13.61858254614817"
      },
      "geometry": {
        "type": "Point",
        "coordinates": [
          176.28528348666836,
          -66.79665254217356
        ]
      }
    },
    {
      "type": "Feature",
      "properties": {
        "norad_id": 31861,
        "name": "FENGYUN 1C DEB",
        "group": "fengyun-1c-debris",
        "lat": 77.06355072872452,
        "lon": 96.87755946159105,
        "alt_km": 1403.6129730236544,
        "timestamp": "2025-12-04T07:39:36.418966+00:00",
        "meta_object_name": "FENGYUN 1C DEB",
        "meta_object_id": "1999-025CKB",
        "meta_epoch": "2025-11-30T18:20:57.621120",
        "meta_mean_motion": 13.30200627,
        "meta_eccentricity": 0.04966148,
        "meta_inclination": 102.3423,
        "meta_ra_of_asc_node": 165.0071,
        "meta_arg_of_pericenter": 230.9853,
        "meta_mean_anomaly": 124.6046,
        "meta_ephemeris_type": 0,
        "meta_classification_type": "U",
        "meta_norad_cat_id": 31861,
        "meta_element_set_no": 999,
        "meta_rev_at_epoch": 66608,
        "meta_bstar": 0.0034105388,
        "meta_mean_motion_dot": 3.105e-05,
        "meta_mean_motion_ddot": 0,
        "tle_line1": "1 31861U 99025CKB 25334.76455580  .00003105  00000+0  34105-2 0  9994",
        "tle_line2": "2 31861 102.3423 165.0071 0496614 230.9853 124.6046 13.30200627666089"
      },
      "geometry": {
        "type": "Point",
        "coordinates": [
          96.87755946159105,
          77.06355072872452
        ]
      }
    }
  ]
}